ONEWEB-0607             
1 54671U 22166AF  24292.94881104 -.00000047  00000+0 -14638-3 0  9991
2 54671  87.9365   4.7076 0001864 106.7427 253.3911 13.21823033 91452
ONEWEB-0608             
1 54672U 22166AG  24293.18219831  .00000166  00000+0  37048-3 0  9991
2 54672  87.9363   4.6910 0001500 113.2803 246.8489 13.21828830 91957
ONEWEB-0610             
1 54673U 22166AH  24292.93619207  .00000091  00000+0  18784-3 0  9998
2 54673  87.9365   4.7277 0001491 112.5557 247.5735 13.21828159 91365
ONEWEB-0612             
1 54675U 22166AK  24292.94249656 -.00000302  00000+0 -76265-3 0  9993
2 54675  87.9365   4.7059 0001718 105.3599 254.7724 13.21824094 91343
ONEWEB-0615             
1 54676U 22166AL  24292.92357789  .00001152  00000+0  27575-2 0  9990
2 54676  87.9361   4.7342 0001918 109.7841 250.3500 13.21824659 91357
ONEWEB-0655             
1 54677U 22166AM  24293.19954982 -.00000778  00000+0 -19165-2 0  9990
2 54677  87.9361   4.6826 0002099 111.1426 248.9932 13.21827861 91856
ONEWEB-0659             
1 54678U 22166AN  24293.21690684  .00000194  00000+0  43728-3 0  9993
2 54678  87.9360   4.6838 0001824  94.8341 265.3002 13.21828096 91949
